NORAD_CAT_ID,OBJECT_NAME,OBJECT_TYPE,EPOCH,MEAN_MOTION,ECCENTRICITY,INCLINATION,RA_OF_ASC_NODE,ARG_OF_PERICENTER,MEAN_ANOMALY,BSTAR,MEAN_MOTION_DOT,MEAN_MOTION_DDOT,TLE_LINE0,TLE_LINE1,TLE_LINE2,SEMIMAJOR_AXIS,PERIOD,APOGEE,PERIGEE,DECAYED
53967.0,STARLINK-4634,PAYLOAD,2023-04-25 03:06:06,15.08825193,0.0001165,53.216,255.8191,87.4255,272.6871,-0.00042011,-6.965e-05,0.0,0 STARLINK-4634,1 53967U 22125D   23115.12924761 -.00006965  00000-0 -42011-3 0  9995,2 53967  53.2160 255.8191 0001165  87.4255 272.6871 15.08825193 30945,6917.926,95.438,540.597,538.985,0.0
53967.0,STARLINK-4634,PAYLOAD,2023-04-25 09:27:40,15.08815018,0.0001844,53.214,254.6276,103.7939,256.3258,-0.00050583,-8.324e-05,0.0,0 STARLINK-4634,1 53967U 22125D   23115.39421584 -.00008324  00000-0 -50583-3 0  9993,2 53967  53.2140 254.6276 0001844 103.7939 256.3258 15.08815018 30986,6917.957,95.439,541.097,538.546,0.0
53967.0,STARLINK-4634,PAYLOAD,2023-04-26 12:29:15,15.08816117,0.0001186,53.214,249.5738,58.3928,301.7179,-0.00023288,-3.99e-05,0.0,0 STARLINK-4634,1 53967U 22125D   23116.52031472 -.00003990  00000-0 -23288-3 0  9998,2 53967  53.2140 249.5738 0001186  58.3928 301.7179 15.08816117 31084,6917.953,95.439,540.639,538.998,0.0
53967.0,STARLINK-4634,PAYLOAD,2023-04-26 15:40:00,15.08839963,0.0001402,53.2126,248.9795,102.2177,257.8972,-9.7874e-06,-4.44e-06,0.0,0 STARLINK-4634,1 53967U 22125D   23116.65278629 -.00000444  00000-0 -97874-5 0  9994,2 53967  53.2126 248.9795 0001402 102.2177 257.8972 15.08839963 31109,6917.881,95.438,540.715,538.776,0.0
53967.0,STARLINK-4634,PAYLOAD,2023-04-27 01:12:20,15.0882922,0.000125,53.2136,247.1942,113.5172,246.5951,0.00055032,8.479e-05,0.0,0 STARLINK-4634,1 53967U 22125D   23117.05023417  .00008479  00000-0  55032-3 0  9994,2 53967  53.2136 247.1942 0001250 113.5172 246.5951 15.08829220 31237,6917.913,95.438,540.643,538.914,0.0
53967.0,STARLINK-4634,PAYLOAD,2023-04-27 09:09:15,15.08840903,0.0001084,53.2145,245.7067,116.4005,243.7098,0.00062737,9.711e-05,0.0,0 STARLINK-4634,1 53967U 22125D   23117.38142925  .00009711  00000-0  62737-3 0  9996,2 53967  53.2145 245.7067 0001084 116.4005 243.7098 15.08840903 31288,6917.878,95.437,540.493,538.993,0.0
53967.0,STARLINK-4634,PAYLOAD,2023-04-27 12:20:01,15.08844162,0.0001029,53.2147,245.1115,121.2275,238.8818,0.00080578,0.00012561,0.0,0 STARLINK-4634,1 53967U 22125D   23117.51391097  .00012561  00000-0  80578-3 0  9997,2 53967  53.2147 245.1115 0001029 121.2275 238.8818 15.08844162 31231,6917.868,95.437,540.445,539.021,0.0
53967.0,STARLINK-4634,PAYLOAD,2023-04-27 17:06:10,15.08860906,0.0001075,53.2147,244.2179,127.0769,233.0321,0.00078189,0.00012185,0.0,0 STARLINK-4634,1 53967U 22125D   23117.71262307  .00012185  00000-0  78189-3 0  9997,2 53967  53.2147 244.2179 0001075 127.0769 233.0321 15.08860906 31335,6917.816,95.436,540.425,538.938,0.0
53967.0,STARLINK-4634,PAYLOAD,2023-04-28 07:24:38,15.08845464,0.0001277,53.2137,241.5432,106.9675,253.1457,-4.6381e-05,-1.026e-05,0.0,0 STARLINK-4634,1 53967U 22125D   23118.30878405 -.00001026  00000-0 -46381-4 0  9999,2 53967  53.2137 241.5432 0001277 106.9675 253.1457 15.08845464 31427,6917.864,95.437,540.612,538.845,0.0
53967.0,STARLINK-4634,PAYLOAD,2023-04-28 12:10:48,15.08844067,8.8e-05,53.2147,240.651,105.9056,254.2033,-0.0001387,-2.495e-05,0.0,0 STARLINK-4634,1 53967U 22125D   23118.50750247 -.00002495  00000-0 -13870-3 0  9991,2 53967  53.2147 240.6510 0000880 105.9056 254.2033 15.08844067 31381,6917.868,95.437,540.342,539.124,0.0
53967.0,STARLINK-4634,PAYLOAD,2023-04-29 13:36:57,15.08860574,7.97e-05,53.2151,235.8949,102.8021,257.306,0.00085311,0.00013323,0.0,0 STARLINK-4634,1 53967U 22125D   23119.56733587  .00013323  00000-0  85311-3 0  9995,2 53967  53.2151 235.8949 0000797 102.8021 257.3060 15.08860574 31546,6917.818,95.436,540.234,539.131,0.0
53967.0,STARLINK-4634,PAYLOAD,2023-04-29 16:47:43,15.0886838,7.65e-05,53.2146,235.2995,92.9568,267.1512,0.0010225,0.00016035,0.0,0 STARLINK-4634,1 53967U 22125D   23119.69981305  .00016035  00000-0  10225-2 0  9996,2 53967  53.2146 235.2995 0000765  92.9568 267.1512 15.08868380 31639,6917.794,95.436,540.188,539.129,0.0
53967.0,STARLINK-4634,PAYLOAD,2023-04-30 07:06:12,15.08846561,7.82e-05,53.2147,232.6237,78.1327,281.9752,0.00016686,2.369e-05,0.0,0 STARLINK-4634,1 53967U 22125D   23120.29597573  .00002369  00000-0  16686-3 0  9997,2 53967  53.2147 232.6237 0000782  78.1327 281.9752 15.08846561 31725,6917.86,95.437,540.266,539.184,0.0
53967.0,STARLINK-4634,PAYLOAD,2023-04-30 13:27:44,15.08840977,0.0001488,53.215,231.4317,131.7266,228.3854,0.00018367,2.636e-05,0.0,0 STARLINK-4634,1 53967U 22125D   23120.56093483  .00002636  00000-0  18367-3 0  9993,2 53967  53.2150 231.4317 0001488 131.7266 228.3854 15.08840977 31696,6917.877,95.437,540.772,538.713,0.0
53967.0,STARLINK-4634,PAYLOAD,2023-05-01 06:56:59,15.088341,0.0001019,53.2144,228.163,69.0713,291.0388,8.3058e-05,1.034e-05,0.0,0 STARLINK-4634,1 53967U 22125D   23121.28958281  .00001034  00000-0  83058-4 0  9990,2 53967  53.2144 228.1630 0001019  69.0713 291.0388 15.08834100 31870,6917.898,95.438,540.468,539.058,0.0
53967.0,STARLINK-4634,PAYLOAD,2023-05-01 13:18:32,15.08834971,8.11e-05,53.2141,226.9726,71.4948,288.6133,7.1681e-05,8.53e-06,0.0,0 STARLINK-4634,1 53967U 22125D   23121.55454372  .00000853  00000-0  71681-4 0  9999,2 53967  53.2141 226.9726 0000811  71.4948 288.6133 15.08834971 31848,6917.896,95.438,540.322,539.2,0.0
53967.0,STARLINK-4634,PAYLOAD,2023-05-02 11:33:56,15.08848927,9.23e-05,53.2141,222.81,61.9803,298.1283,0.00039911,6.071e-05,0.0,0 STARLINK-4634,1 53967U 22125D   23122.48190206  .00006071  00000-0  39911-3 0  9992,2 53967  53.2141 222.8100 0000923  61.9803 298.1283 15.08848927 32059,6917.853,95.437,540.357,539.08,0.0
53967.0,STARLINK-4634,PAYLOAD,2023-05-02 13:09:19,15.08850528,9.49e-05,53.2142,222.5128,59.9922,300.1164,0.00042103,6.421e-05,0.0,0 STARLINK-4634,1 53967U 22125D   23122.54814149  .00006421  00000-0  42103-3 0  9994,2 53967  53.2142 222.5128 0000949  59.9922 300.1164 15.08850528 31998,6917.848,95.437,540.37,539.057,0.0
53967.0,STARLINK-4634,PAYLOAD,2023-05-02 16:20:05,15.08856903,8.86e-05,53.2142,221.9173,68.7592,291.3495,0.00057969,8.954e-05,0.0,0 STARLINK-4634,1 53967U 22125D   23122.68061905  .00008954  00000-0  57969-3 0  9992,2 53967  53.2142 221.9173 0000886  68.7592 291.3495 15.08856903 32017,6917.829,95.436,540.307,539.081,0.0
53967.0,STARLINK-4634,PAYLOAD,2023-05-03 11:24:43,15.08838943,7.22e-05,53.2145,218.348,71.9552,288.1519,8.5697e-05,1.076e-05,0.0,0 STARLINK-4634,1 53967U 22125D   23123.47550461  .00001076  00000-0  85697-4 0  9998,2 53967  53.2145 218.3480 0000722  71.9552 288.1519 15.08838943 32208,6917.884,95.438,540.248,539.249,0.0
53967.0,STARLINK-4634,PAYLOAD,2023-05-03 13:00:06,15.08841989,7.48e-05,53.2148,218.0512,72.9289,287.1785,0.0001715,2.443e-05,0.0,0 STARLINK-4634,1 53967U 22125D   23123.54174432  .00002443  00000-0  17150-3 0  9993,2 53967  53.2148 218.0512 0000748  72.9289 287.1785 15.08841989 32141,6917.874,95.437,540.257,539.222,0.0
53967.0,STARLINK-4634,PAYLOAD,2023-05-03 16:10:53,15.08842084,7.8e-05,53.2149,217.4561,86.2924,273.8157,0.00020789,3.023e-05,0.0,0 STARLINK-4634,1 53967U 22125D   23123.67422454  .00003023  00000-0  20789-3 0  9994,2 53967  53.2149 217.4561 0000780  86.2924 273.8157 15.08842084 32163,6917.874,95.437,540.279,539.199,0.0
53967.0,STARLINK-4634,PAYLOAD,2023-05-04 12:50:53,15.08844774,8.32e-05,53.2155,213.5905,89.2704,270.8383,0.00027348,4.068e-05,0.0,0 STARLINK-4634,1 53967U 22125D   23124.53534553  .00004068  00000-0  27348-3 0  9992,2 53967  53.2155 213.5905 0000832  89.2704 270.8383 15.08844774 32296,6917.866,95.437,540.306,539.155,0.0
53967.0,STARLINK-4634,PAYLOAD,2023-05-05 12:41:40,15.08844332,9.3e-05,53.2151,209.1322,89.8819,270.228,0.00021432,3.125e-05,0.0,0 STARLINK-4634,1 53967U 22125D   23125.52894565  .00003125  00000-0  21432-3 0  9995,2 53967  53.2151 209.1322 0000930  89.8819 270.2280 15.08844332 32513,6917.867,95.437,540.376,539.089,0.0
53967.0,STARLINK-4634,PAYLOAD,2023-05-06 12:32:27,15.08844978,9.07e-05,53.2145,204.6706,88.9986,271.111,0.00016336,2.313e-05,0.0,0 STARLINK-4634,1 53967U 22125D   23126.52254577  .00002313  00000-0  16336-3 0  9994,2 53967  53.2145 204.6706 0000907  88.9986 271.1110 15.08844978 32597,6917.865,95.437,540.358,539.103,0.0
53967.0,STARLINK-4634,PAYLOAD,2023-05-07 12:23:14,15.0884738,9.13e-05,53.214,200.2101,85.0026,275.107,0.00020867,3.035e-05,0.0,0 STARLINK-4634,1 53967U 22125D   23127.51614339  .00003035  00000-0  20867-3 0  9996,2 53967  53.2140 200.2101 0000913  85.0026 275.1070 15.08847380 32749,6917.858,95.437,540.354,539.091,0.0
53967.0,STARLINK-4634,PAYLOAD,2023-05-07 21:55:33,15.08842915,8.82e-05,53.214,198.4267,89.7432,270.3661,0.00012471,1.698e-05,0.0,0 STARLINK-4634,1 53967U 22125D   23127.91358466  .00001698  00000-0  12471-3 0  9991,2 53967  53.2140 198.4267 0000882  89.7432 270.3661 15.08842915 32873,6917.871,95.437,540.347,539.126,0.0
53967.0,STARLINK-4634,PAYLOAD,2023-05-08 10:38:39,15.08827501,9.9e-05,53.2139,196.0473,101.2143,258.8961,0.00017134,2.439e-05,0.0,0 STARLINK-4634,1 53967U 22125D   23128.44351402  .00002439  00000-0  17134-3 0  9998,2 53967  53.2139 196.0473 0000990 101.2143 258.8961 15.08827501 32950,6917.919,95.438,540.468,539.099,0.0
53967.0,STARLINK-4634,PAYLOAD,2023-05-08 12:14:02,15.08836455,9.78e-05,53.2141,195.7492,91.6817,268.4287,7.6988e-07,-2.75e-06,0.0,0 STARLINK-4634,1 53967U 22125D   23128.50974992 -.00000275  00000-0  76988-6 0  9992,2 53967  53.2141 195.7492 0000978  91.6817 268.4287 15.08836455 32963,6917.891,95.438,540.433,539.08,0.0
53967.0,STARLINK-4634,PAYLOAD,2023-05-09 10:29:26,15.08840693,0.0001062,53.2143,191.5863,95.3551,264.7562,0.00010532,1.389e-05,0.0,0 STARLINK-4634,1 53967U 22125D   23129.43710979  .00001389  00000-0  10532-3 0  9994,2 53967  53.2143 191.5863 0001062  95.3551 264.7562 15.08840693 33035,6917.878,95.438,540.478,539.009,0.0
